{
  "links" : {
    "next" : "https://api.nasa.gov/neo/rest/v1/feed?start_date=1998-03-23&end_date=1998-03-23&detailed=true&api_key=t0TVs3DtDT2H8Oy2Zy8m2eVrNsAVKAexjcZXUckd",
    "prev" : "https://api.nasa.gov/neo/rest/v1/feed?start_date=1998-03-21&end_date=1998-03-21&detailed=true&api_key=t0TVs3DtDT2H8Oy2Zy8m2eVrNsAVKAexjcZXUckd",
    "self" : "https://api.nasa.gov/neo/rest/v1/feed?start_date=1998-03-22&end_date=1998-03-22&detailed=true&api_key=t0TVs3DtDT2H8Oy2Zy8m2eVrNsAVKAexjcZXUckd"
  },
  "element_count" : 5,
  "near_earth_objects" : {
    "1998-03-22" : [ {
      "links" : {
        "self" : "https://api.nasa.gov/neo/rest/v1/neo/2010165?api_key=t0TVs3DtDT2H8Oy2Zy8m2eVrNsAVKAexjcZXUckd"
      },
      "neo_reference_id" : "2010165",
      "name" : "10165 (1995 BL2)",
      "nasa_jpl_url" : "http://ssd.jpl.nasa.gov/sbdb.cgi?sstr=2010165",
      "absolute_magnitude_h" : 17.3,
      "estimated_diameter" : {
        "kilometers" : {
          "estimated_diameter_min" : 0.9216265485,
          "estimated_diameter_max" : 2.0608196123
        },
        "meters" : {
          "estimated_diameter_min" : 921.6265485028,
          "estimated_diameter_max" : 2060.8196123208
        },
        "miles" : {
          "estimated_diameter_min" : 0.5726720101,
          "estimated_diameter_max" : 1.2805335433
        },
        "feet" : {
          "estimated_diameter_min" : 3023.70924539,
          "estimated_diameter_max" : 6761.2194168867
        }
      },
      "is_potentially_hazardous_asteroid" : false,
      "close_approach_data" : [ {
        "close_approach_date" : "1998-03-22",
        "epoch_date_close_approach" : 890553600000,
        "relative_velocity" : {
          "kilometers_per_second" : "26.0653736176",
          "kilometers_per_hour" : "93835.3450235278",
          "miles_per_hour" : "58305.6342453137"
        },
        "miss_distance" : {
          "astronomical" : "0.4956372213",
          "lunar" : "192.8028717041",
          "kilometers" : "74146272",
          "miles" : "46072356"
        },
        "orbiting_body" : "Earth"
      } ],
      "orbital_data" : {
        "orbit_id" : "104",
        "orbit_determination_date" : "2017-04-06 09:29:56",
        "orbit_uncertainty" : "0",
        "minimum_orbit_intersection" : ".375572",
        "jupiter_tisserand_invariant" : "4.984",
        "epoch_osculation" : "2458000.5",
        "eccentricity" : ".5036969192312907",
        "semi_major_axis" : "1.234758600037682",
        "inclination" : "23.89340173752436",
        "ascending_node_longitude" : "312.4480961375718",
        "orbital_period" : "501.1543638808701",
        "perihelion_distance" : ".6128144972043599",
        "perihelion_argument" : "348.4316193993977",
        "aphelion_distance" : "1.856702702871003",
        "perihelion_time" : "2457967.294947440180",
        "mean_anomaly" : "23.85256875539582",
        "mean_motion" : ".7183415449328022",
        "equinox" : "J2000"
      }
    }, {
      "links" : {
        "self" : "https://api.nasa.gov/neo/rest/v1/neo/2162080?api_key=t0TVs3DtDT2H8Oy2Zy8m2eVrNsAVKAexjcZXUckd"
      },
      "neo_reference_id" : "2162080",
      "name" : "162080 (1998 DG16)",
      "nasa_jpl_url" : "http://ssd.jpl.nasa.gov/sbdb.cgi?sstr=2162080",
      "absolute_magnitude_h" : 19.9,
      "estimated_diameter" : {
        "kilometers" : {
          "estimated_diameter_min" : 0.2783267681,
          "estimated_diameter_max" : 0.6223575734
        },
        "meters" : {
          "estimated_diameter_min" : 278.3267680719,
          "estimated_diameter_max" : 622.3575733667
        },
        "miles" : {
          "estimated_diameter_min" : 0.1729441822,
          "estimated_diameter_max" : 0.3867149477
        },
        "feet" : {
          "estimated_diameter_min" : 913.1455937611,
          "estimated_diameter_max" : 2041.8556210042
        }
      },
      "is_potentially_hazardous_asteroid" : false,
      "close_approach_data" : [ {
        "close_approach_date" : "1998-03-22",
        "epoch_date_close_approach" : 890553600000,
        "relative_velocity" : {
          "kilometers_per_second" : "10.9571404904",
          "kilometers_per_hour" : "39445.7057654857",
          "miles_per_hour" : "24510.0275630042"
        },
        "miss_distance" : {
          "astronomical" : "0.2038258643",
          "lunar" : "79.2882614136",
          "kilometers" : "30491916",
          "miles" : "18946798"
        },
        "orbiting_body" : "Earth"
      } ],
      "orbital_data" : {
        "orbit_id" : "54",
        "orbit_determination_date" : "2017-04-06 09:26:39",
        "orbit_uncertainty" : "0",
        "minimum_orbit_intersection" : ".188689",
        "jupiter_tisserand_invariant" : "6.547",
        "epoch_osculation" : "2458000.5",
        "eccentricity" : ".3582157286572681",
        "semi_major_axis" : ".8967329527979436",
        "inclination" : "16.20563779412695",
        "ascending_node_longitude" : "344.3672869481488",
        "orbital_period" : "310.1652369649647",
        "perihelion_distance" : ".5755091047004446",
        "perihelion_argument" : "356.8545111126998",
        "aphelion_distance" : "1.217956800895443",
        "perihelion_time" : "2458150.610395817841",
        "mean_anomaly" : "185.771117926646",
        "mean_motion" : "1.160671658509121",
        "equinox" : "J2000"
      }
    }, {
      "links" : {
        "self" : "https://api.nasa.gov/neo/rest/v1/neo/3274691?api_key=t0TVs3DtDT2H8Oy2Zy8m2eVrNsAVKAexjcZXUckd"
      },
      "neo_reference_id" : "3274691",
      "name" : "(2005 FC)",
      "nasa_jpl_url" : "http://ssd.jpl.nasa.gov/sbdb.cgi?sstr=3274691",
      "absolute_magnitude_h" : 24.5,
      "estimated_diameter" : {
        "kilometers" : {
          "estimated_diameter_min" : 0.0334622374,
          "estimated_diameter_max" : 0.0748238376
        },
        "meters" : {
          "estimated_diameter_min" : 33.4622374455,
          "estimated_diameter_max" : 74.8238376074
        },
        "miles" : {
          "estimated_diameter_min" : 0.0207924639,
          "estimated_diameter_max" : 0.0464933628
        },
        "feet" : {
          "estimated_diameter_min" : 109.7842471007,
          "estimated_diameter_max" : 245.4850393757
        }
      },
      "is_potentially_hazardous_asteroid" : false,
      "close_approach_data" : [ {
        "close_approach_date" : "1998-03-22",
        "epoch_date_close_approach" : 890553600000,
        "relative_velocity" : {
          "kilometers_per_second" : "15.0380596443",
          "kilometers_per_hour" : "54137.0147194418",
          "miles_per_hour" : "33638.635618311"
        },
        "miss_distance" : {
          "astronomical" : "0.1829052714",
          "lunar" : "71.1501541138",
          "kilometers" : "27362240",
          "miles" : "17002108"
        },
        "orbiting_body" : "Earth"
      } ],
      "orbital_data" : {
        "orbit_id" : "9",
        "orbit_determination_date" : "2017-04-06 09:11:14",
        "orbit_uncertainty" : "6",
        "minimum_orbit_intersection" : ".0247104",
        "jupiter_tisserand_invariant" : "6.455",
        "epoch_osculation" : "2458000.5",
        "eccentricity" : ".2708340787063648",
        "semi_major_axis" : ".9182685549901616",
        "inclination" : "12.82372798329993",
        "ascending_node_longitude" : ".1826417533350294",
        "orbital_period" : "321.4052717631397",
        "perihelion_distance" : ".6695701368943763",
        "perihelion_argument" : "310.8468810792294",
        "aphelion_distance" : "1.166966973085947",
        "perihelion_time" : "2458044.869178255389",
        "mean_anomaly" : "310.3029179194314",
        "mean_motion" : "1.120081192275224",
        "equinox" : "J2000"
      }
    } ]
  }
}